     3.00           N                   E                   RINEX VERSION / TYPE
BRD_USR             ESA                 20190106 001715  UTCPGM / RUN BY / DATE
 GAL   5.0250E+01 -3.9062E-02 -1.6785E-03  0.0000E+00       IONOSPHERIC CORR
GAUT  0.0000000000E+00 0.000000000E+00 518400 2034 GSTB   0 TIME SYSTEM CORR
GPGA -2.6484485716E-09 2.664535259E-15      0 2035 GSTB   0 TIME SYSTEM CORR
                                                            END OF HEADER
E14 2019 01 05 21 50 00 6.464223610237E-03-5.599076757790E-12 0.000000000000E+00
     9.900000000000E+01-6.593750000000E+00 5.725595636897E-09-1.034695373318E+00
     1.456588506699E-06 1.663900787244E-01 3.939494490623E-06 5.289325731277E+03
     5.970000000000E+05-1.583248376846E-06-1.340546697939E+00 4.822388291359E-06
     8.825511294313E-01 2.741562500000E+02 1.452917274305E+00-8.837868132682E-09
    -1.022899750738E-09 5.210000000000E+02 2.034000000000E+03 0.000000000000E+00
     3.120000000000E+00 4.550000000000E+02 3.329478204250E-08 3.748573362827E-08
     5.993650000000E+05 0.000000000000E+00 0.000000000000E+00 0.000000000000E+00
E01 2019 01 05 22 20 00-5.145577597432E-04-8.071765478235E-12 0.000000000000E+00
     1.020000000000E+02 1.537187500000E+02 2.424386699723E-09-2.787722195796E+00
     7.243826985359E-06 1.139919040725E-04 1.090206205845E-05 5.440630884171E+03
     5.988000000000E+05-4.284083843231E-08-2.825807420324E+00 4.284083843231E-08
     9.903537982223E-01 1.204375000000E+02-8.651170182706E-01-5.118427488764E-09
    -6.214544575012E-11 5.210000000000E+02 2.034000000000E+03 0.000000000000E+00
     3.120000000000E+00 0.000000000000E+00-4.423782229424E-09-5.122274160385E-09
     5.994850000000E+05 0.000000000000E+00 0.000000000000E+00 0.000000000000E+00
E02 2019 01 05 22 20 00 4.211929626763E-05 1.477928890381E-12 0.000000000000E+00
     1.020000000000E+02 1.849062500000E+02 2.388313768569E-09-2.351059931540E-01
     8.566305041313E-06 2.656871220097E-04 1.184083521366E-05 5.440627805710E+03
     5.988000000000E+05 6.146728992462E-08-2.825840611010E+00-7.078051567078E-08
     9.903622129271E-01 1.006562500000E+02-2.778524067652E-01-5.031995317089E-09
    -4.821629411647E-11 5.210000000000E+02 2.034000000000E+03 0.000000000000E+00
     3.120000000000E+00 0.000000000000E+00-6.053596735001E-09-7.217749953270E-09
     5.994850000000E+05 0.000000000000E+00 0.000000000000E+00 0.000000000000E+00
E05 2019 01 05 22 20 00 1.300706644543E-04-6.579625733139E-12 0.000000000000E+00
     1.020000000000E+02 2.621875000000E+01 3.679438977688E-09 8.016493224263E-01
     1.257285475731E-06 1.491090515628E-04 4.567205905914E-06 5.440602100372E+03
     5.988000000000E+05 2.607703208923E-08 1.365020082703E+00 1.676380634308E-08
     9.521961811930E-01 2.356250000000E+02 1.563014316517E+00-5.727738583303E-09
     4.432327481373E-10 5.210000000000E+02 2.034000000000E+03 0.000000000000E+00
     3.120000000000E+00 0.000000000000E+00-1.396983861923E-09-1.396983861923E-09
     5.994850000000E+05 0.000000000000E+00 0.000000000000E+00 0.000000000000E+00
E07 2019 01 05 22 20 00-1.071467413567E-04-7.105427357601E-12 0.000000000000E+00
     1.020000000000E+02 2.500000000000E+01 3.630508368103E-09-8.574630118619E-02
     1.247972249985E-06 1.453452277929E-04 4.922971129417E-06 5.440605648041E+03
     5.988000000000E+05 1.490116119385E-08 1.365036528828E+00-3.166496753693E-08
     9.522265835565E-01 2.301562500000E+02 9.252345205316E-02-5.690594178946E-09
     4.878774649119E-10 5.210000000000E+02 2.034000000000E+03 0.000000000000E+00
     3.120000000000E+00 0.000000000000E+00 2.328306436539E-10 0.000000000000E+00
     5.994850000000E+05 0.000000000000E+00 0.000000000000E+00 0.000000000000E+00
E09 2019 01 05 22 20 00 6.566930038389E-03-1.134026206273E-11 0.000000000000E+00
     1.020000000000E+02 2.440625000000E+01 3.588363755468E-09 3.001549850919E+00
     1.184642314911E-06 2.486964222044E-04 4.615634679794E-06 5.440603750229E+03
     5.988000000000E+05-1.117587089539E-08 1.356391778705E+00 2.235174179077E-08
     9.581987066965E-01 2.406875000000E+02 1.468160694900E-01-5.689879863478E-09
     4.385896975928E-10 5.210000000000E+02 2.034000000000E+03 0.000000000000E+00
     3.120000000000E+00 0.000000000000E+00-3.259629011154E-09-3.958120942116E-09
     5.994850000000E+05 0.000000000000E+00 0.000000000000E+00 0.000000000000E+00
E11 2019 01 05 22 20 00 5.719096574467E-03 1.094235813071E-12 0.000000000000E+00
     1.020000000000E+02-1.868437500000E+02 2.783687380324E-09-6.832988372707E-01
    -8.730217814445E-06 2.376410411671E-04 3.775581717491E-06 5.440604455948E+03
     5.988000000000E+05-9.313225746155E-09-7.401390504709E-01 1.862645149231E-09
     9.819772858327E-01 2.714687500000E+02-3.561106344887E-01-5.622019893981E-09
    -4.257320191617E-10 5.210000000000E+02 2.034000000000E+03 0.000000000000E+00
     3.120000000000E+00 0.000000000000E+00-1.816079020500E-08-1.979060471058E-08
     5.994850000000E+05 0.000000000000E+00 0.000000000000E+00 0.000000000000E+00
E13 2019 01 05 22 20 00 3.813742077909E-04 4.973799150321E-13 0.000000000000E+00
     1.020000000000E+02-1.842812500000E+02 2.736899717145E-09-2.566973991650E+00
    -8.642673492432E-06 3.323246492073E-04 2.443790435791E-06 5.440600639343E+03
     5.988000000000E+05 8.754432201385E-08-7.454396269183E-01-5.215406417847E-08
     9.852183969294E-01 3.031875000000E+02-1.607655991702E+00-5.604162007271E-09
    -4.260891768959E-10 5.210000000000E+02 2.034000000000E+03 0.000000000000E+00
     3.120000000000E+00 4.550000000000E+02-4.656612873077E-09-5.820766091347E-09
     5.994850000000E+05 0.000000000000E+00 0.000000000000E+00 0.000000000000E+00
E15 2019 01 05 22 20 00 9.237572667189E-04-1.065814103640E-12 0.000000000000E+00
     1.020000000000E+02-1.930312500000E+02 2.785473168995E-09-1.703186607919E+00
    -9.046867489815E-06 3.814124502242E-04 2.188608050346E-06 5.440601797104E+03
     5.988000000000E+05 5.401670932770E-08-7.454511459353E-01 3.911554813385E-08
     9.851755261151E-01 3.069062500000E+02-1.689237246620E+00-5.704166172846E-09
    -4.182317067436E-10 5.210000000000E+02 2.034000000000E+03 0.000000000000E+00
     3.120000000000E+00 4.550000000000E+02 1.629814505577E-09 1.396983861923E-09
     5.994850000000E+05 0.000000000000E+00 0.000000000000E+00 0.000000000000E+00
E18 2019 01 05 22 20 00 5.628125858493E-03-2.850697455870E-11 0.000000000000E+00
     1.020000000000E+02-5.550000000000E+01 5.439512291806E-09 2.319578218281E+00
    -3.084540367126E-06 1.664353642846E-01-1.335144042969E-05 5.289389928818E+03
     5.988000000000E+05 2.915039658546E-06-1.323442060800E+00-7.785856723785E-07
     8.817537235076E-01 6.257187500000E+02 1.437524530735E+00-6.500985077837E-09
    -1.642925577302E-11 5.210000000000E+02 2.034000000000E+03 0.000000000000E+00
     3.120000000000E+00 4.550000000000E+02 1.396983861923E-08 1.559965312481E-08
     5.994850000000E+05 0.000000000000E+00 0.000000000000E+00 0.000000000000E+00
E19 2019 01 05 22 20 00-9.349372703582E-06 2.842170943040E-13 0.000000000000E+00
     1.020000000000E+02 2.934375000000E+01 3.596221225620E-09 2.553729830012E+00
     1.287087798119E-06 1.394111895934E-04 4.677101969719E-06 5.440607524872E+03
     5.988000000000E+05-1.862645149231E-09 1.361748172792E+00 4.842877388000E-08
     9.579537410642E-01 2.351875000000E+02 2.244795256321E+00-5.745953627747E-09
     4.743054710124E-10 5.210000000000E+02 2.034000000000E+03 0.000000000000E+00
     3.120000000000E+00 0.000000000000E+00-8.847564458847E-09-9.080395102501E-09
     5.994850000000E+05 0.000000000000E+00 0.000000000000E+00 0.000000000000E+00
E21 2019 01 05 22 20 00-5.129853961989E-04-1.890043677122E-12 0.000000000000E+00
     1.020000000000E+02 1.471250000000E+02 2.431172696673E-09-2.511204142944E+00
     6.835907697678E-06 4.804180935025E-05 1.178868114948E-05 5.440633369446E+03
     5.988000000000E+05-1.490116119385E-08-2.828413526959E+00-5.587935447693E-09
     9.899180212590E-01 1.008750000000E+02-3.399025905815E-01-5.090212027763E-09
    -7.643175511796E-11 5.210000000000E+02 2.034000000000E+03 0.000000000000E+00
     3.120000000000E+00 0.000000000000E+00-2.561137080193E-09-3.259629011154E-09
     5.994850000000E+05 0.000000000000E+00 0.000000000000E+00 0.000000000000E+00
E24 2019 01 05 22 20 00 6.301082088612E-03-1.968203378055E-11 0.000000000000E+00
     1.020000000000E+02 1.699062500000E+02 2.484032041334E-09 6.164972052517E-01
     8.024275302887E-06 4.635056247935E-04 1.037120819092E-05 5.440622833252E+03
     5.988000000000E+05 2.980232238770E-08-2.822335209133E+00-1.303851604462E-08
     9.879207416300E-01 1.303125000000E+02 4.383038938708E-01-5.130928009461E-09
    -9.607543049875E-11 5.210000000000E+02 2.034000000000E+03 0.000000000000E+00
     3.120000000000E+00 0.000000000000E+00 4.284083843231E-08 4.773028194904E-08
     5.994850000000E+05 0.000000000000E+00 0.000000000000E+00 0.000000000000E+00
E30 2019 01 05 22 20 00 5.211873794906E-03-3.055333763768E-11 0.000000000000E+00
     1.020000000000E+02 1.711562500000E+02 2.446173321509E-09-1.796016179969E+00
     7.985159754753E-06 2.938959514722E-04 1.197494566441E-05 5.440626794815E+03
     5.988000000000E+05-7.823109626770E-08-2.822391252062E+00-3.725290298462E-09
     9.879047080479E-01 9.631250000000E+01 4.971011096394E-01-5.110212860878E-09
    -2.000083311498E-11 5.210000000000E+02 2.034000000000E+03 0.000000000000E+00
     3.120000000000E+00 0.000000000000E+00-3.026798367500E-09-3.725290298462E-09
     5.994850000000E+05 0.000000000000E+00 0.000000000000E+00 0.000000000000E+00
